[{"OBJECT_NAME":"STARLINK-5279","OBJECT_ID":"2022-141J","EPOCH":"2025-09-08T00:57:14.335200","MEAN_MOTION":15.08836513,"ECCENTRICITY":0.00014471,"INCLINATION":53.2176,"RA_OF_ASC_NODE":114.0446,"ARG_OF_PERICENTER":88.9452,"MEAN_ANOMALY":271.1706,"EPHEMERIS_TYPE":0,"CLASSIFICATION_TYPE":"U","NORAD_CAT_ID":54165,"ELEMENT_SET_NO":999,"REV_AT_EPOCH":15814,"BSTAR":-3.7365385e-5,"MEAN_MOTION_DOT":-8.83e-6,"MEAN_MOTION_DDOT":0},{"OBJECT_NAME":"STARLINK-5280","OBJECT_ID":"2022-141K","EPOCH":"2025-09-07T22:03:43.460064","MEAN_MOTION":15.08833518,"ECCENTRICITY":0.00012439,"INCLINATION":53.2174,"RA_OF_ASC_NODE":104.7417,"ARG_OF_PERICENTER":88.9017,"MEAN_ANOMALY":271.2118,"EPHEMERIS_TYPE":0,"CLASSIFICATION_TYPE":"U","NORAD_CAT_ID":54166,"ELEMENT_SET_NO":999,"REV_AT_EPOCH":15826,"BSTAR":3.0523425e-5,"MEAN_MOTION_DOT":1.98e-6,"MEAN_MOTION_DDOT":0},{"OBJECT_NAME":"STARLINK-5243","OBJECT_ID":"2022-141L","EPOCH":"2025-09-07T21:19:56.248608","MEAN_MOTION":15.08839174,"ECCENTRICITY":0.0001464,"INCLINATION":53.2152,"RA_OF_ASC_NODE":114.5274,"ARG_OF_PERICENTER":80.3363,"MEAN_ANOMALY":279.7795,"EPHEMERIS_TYPE":0,"CLASSIFICATION_TYPE":"U","NORAD_CAT_ID":54167,"ELEMENT_SET_NO":999,"REV_AT_EPOCH":15812,"BSTAR":9.50313e-7,"MEAN_MOTION_DOT":-2.73e-6,"MEAN_MOTION_DDOT":0},{"OBJECT_NAME":"STARLINK-5245","OBJECT_ID":"2022-141M","EPOCH":"2025-09-07T23:33:47.938176","MEAN_MOTION":15.08837542,"ECCENTRICITY":0.0001329,"INCLINATION":53.2175,"RA_OF_ASC_NODE":104.4215,"ARG_OF_PERICENTER":87.5011,"MEAN_ANOMALY":272.6134,"EPHEMERIS_TYPE":0,"CLASSIFICATION_TYPE":"U","NORAD_CAT_ID":54168,"ELEMENT_SET_NO":999,"REV_AT_EPOCH":15827,"BSTAR":3.8573996e-5,"MEAN_MOTION_DOT":3.26e-6,"MEAN_MOTION_DDOT":0},{"OBJECT_NAME":"STARLINK-5282","OBJECT_ID":"2022-141N","EPOCH":"2025-09-07T23:54:53.947872","MEAN_MOTION":15.08839127,"ECCENTRICITY":0.00012004,"INCLINATION":53.2163,"RA_OF_ASC_NODE":103.81,"ARG_OF_PERICENTER":88.0724,"MEAN_ANOMALY":272.0405,"EPHEMERIS_TYPE":0,"CLASSIFICATION_TYPE":"U","NORAD_CAT_ID":54169,"ELEMENT_SET_NO":999,"REV_AT_EPOCH":15828,"BSTAR":-3.6184919e-5,"MEAN_MOTION_DOT":-8.64e-6,"MEAN_MOTION_DDOT":0},{"OBJECT_NAME":"STARLINK-5155","OBJECT_ID":"2022-141P","EPOCH":"2025-09-07T21:53:06.372384","MEAN_MOTION":15.0883629,"ECCENTRICITY":0.00014354,"INCLINATION":53.2173,"RA_OF_ASC_NODE":104.6974,"ARG_OF_PERICENTER":93.8996,"MEAN_ANOMALY":266.2161,"EPHEMERIS_TYPE":0,"CLASSIFICATION_TYPE":"U","NORAD_CAT_ID":54170,"ELEMENT_SET_NO":999,"REV_AT_EPOCH":15826,"BSTAR":5.372232e-6,"MEAN_MOTION_DOT":-2.02e-6,"MEAN_MOTION_DDOT":0},{"OBJECT_NAME":"STARLINK-5117","OBJECT_ID":"2022-141R","EPOCH":"2025-09-08T00:53:13.915104","MEAN_MOTION":15.08863686,"ECCENTRICITY":0.00013712,"INCLINATION":53.2164,"RA_OF_ASC_NODE":104.0535,"ARG_OF_PERICENTER":98.5293,"MEAN_ANOMALY":261.5855,"EPHEMERIS_TYPE":0,"CLASSIFICATION_TYPE":"U","NORAD_CAT_ID":54172,"ELEMENT_SET_NO":999,"REV_AT_EPOCH":15828,"BSTAR":0.00021216788,"MEAN_MOTION_DOT":3.092e-5,"MEAN_MOTION_DDOT":0},{"OBJECT_NAME":"STARLINK-5242","OBJECT_ID":"2022-141S","EPOCH":"2025-09-08T00:00:12.157344","MEAN_MOTION":15.08851134,"ECCENTRICITY":0.00012359,"INCLINATION":53.2171,"RA_OF_ASC_NODE":103.8254,"ARG_OF_PERICENTER":102.2747,"MEAN_ANOMALY":257.8383,"EPHEMERIS_TYPE":0,"CLASSIFICATION_TYPE":"U","NORAD_CAT_ID":54173,"ELEMENT_SET_NO":999,"REV_AT_EPOCH":15828,"BSTAR":-2.684679e-6,"MEAN_MOTION_DOT":-3.31e-6,"MEAN_MOTION_DDOT":0},{"OBJECT_NAME":"STARLINK-5248","OBJECT_ID":"2022-141T","EPOCH":"2025-09-08T03:20:56.205888","MEAN_MOTION":15.08837222,"ECCENTRICITY":0.0001252,"INCLINATION":53.2184,"RA_OF_ASC_NODE":48.3625,"ARG_OF_PERICENTER":93.8442,"MEAN_ANOMALY":266.2694,"EPHEMERIS_TYPE":0,"CLASSIFICATION_TYPE":"U","NORAD_CAT_ID":54174,"ELEMENT_SET_NO":999,"REV_AT_EPOCH":15907,"BSTAR":-4.3575125e-5,"MEAN_MOTION_DOT":-9.81e-6,"MEAN_MOTION_DDOT":0},{"OBJECT_NAME":"STARLINK-5256","OBJECT_ID":"2022-141U","EPOCH":"2025-09-07T23:23:11.353344","MEAN_MOTION":15.08836159,"ECCENTRICITY":0.00013242,"INCLINATION":53.216,"RA_OF_ASC_NODE":104.3745,"ARG_OF_PERICENTER":89.7854,"MEAN_ANOMALY":270.329,"EPHEMERIS_TYPE":0,"CLASSIFICATION_TYPE":"U","NORAD_CAT_ID":54175,"ELEMENT_SET_NO":999,"REV_AT_EPOCH":15827,"BSTAR":-1.7454094e-5,"MEAN_MOTION_DOT":-5.66e-6,"MEAN_MOTION_DDOT":0},{"OBJECT_NAME":"STARLINK-5154","OBJECT_ID":"2022-141V","EPOCH":"2025-09-07T21:26:33.826848","MEAN_MOTION":15.08849522,"ECCENTRICITY":0.00012032,"INCLINATION":53.2155,"RA_OF_ASC_NODE":104.5809,"ARG_OF_PERICENTER":94.2338,"MEAN_ANOMALY":265.8792,"EPHEMERIS_TYPE":0,"CLASSIFICATION_TYPE":"U","NORAD_CAT_ID":54176,"ELEMENT_SET_NO":999,"REV_AT_EPOCH":15826,"BSTAR":0.00035526863,"MEAN_MOTION_DOT":5.372e-5,"MEAN_MOTION_DDOT":0},{"OBJECT_NAME":"STARLINK-5186","OBJECT_ID":"2022-141W","EPOCH":"2025-09-08T00:47:57.564096","MEAN_MOTION":15.08829038,"ECCENTRICITY":0.00012715,"INCLINATION":53.2169,"RA_OF_ASC_NODE":104.0315,"ARG_OF_PERICENTER":86.8641,"MEAN_ANOMALY":273.2497,"EPHEMERIS_TYPE":0,"CLASSIFICATION_TYPE":"U","NORAD_CAT_ID":54177,"ELEMENT_SET_NO":999,"REV_AT_EPOCH":15828,"BSTAR":0.00014600784,"MEAN_MOTION_DOT":2.036e-5,"MEAN_MOTION_DDOT":0},{"OBJECT_NAME":"STARLINK-5164","OBJECT_ID":"2022-141X","EPOCH":"2025-09-07T21:05:20.791104","MEAN_MOTION":15.08837398,"ECCENTRICITY":0.00013643,"INCLINATION":53.2172,"RA_OF_ASC_NODE":104.4648,"ARG_OF_PERICENTER":89.1676,"MEAN_ANOMALY":270.9473,"EPHEMERIS_TYPE":0,"CLASSIFICATION_TYPE":"U","NORAD_CAT_ID":54178,"ELEMENT_SET_NO":999,"REV_AT_EPOCH":15826,"BSTAR":-3.733745e-6,"MEAN_MOTION_DOT":-3.47e-6,"MEAN_MOTION_DDOT":0},{"OBJECT_NAME":"STARLINK-5122","OBJECT_ID":"2022-141Y","EPOCH":"2025-09-07T21:31:53.248512","MEAN_MOTION":15.08832175,"ECCENTRICITY":0.00012856,"INCLINATION":53.217,"RA_OF_ASC_NODE":104.6027,"ARG_OF_PERICENTER":84.125,"MEAN_ANOMALY":275.9889,"EPHEMERIS_TYPE":0,"CLASSIFICATION_TYPE":"U","NORAD_CAT_ID":54179,"ELEMENT_SET_NO":999,"REV_AT_EPOCH":15826,"BSTAR":-7.9453371e-5,"MEAN_MOTION_DOT":-1.552e-5,"MEAN_MOTION_DDOT":0},{"OBJECT_NAME":"STARLINK-5228","OBJECT_ID":"2022-141Z","EPOCH":"2025-09-07T21:00:02.409696","MEAN_MOTION":15.08841204,"ECCENTRICITY":0.00011947,"INCLINATION":53.2167,"RA_OF_ASC_NODE":104.4626,"ARG_OF_PERICENTER":93.2001,"MEAN_ANOMALY":266.9128,"EPHEMERIS_TYPE":0,"CLASSIFICATION_TYPE":"U","NORAD_CAT_ID":54180,"ELEMENT_SET_NO":999,"REV_AT_EPOCH":15826,"BSTAR":-1.4652038e-5,"MEAN_MOTION_DOT":-5.21e-6,"MEAN_MOTION_DDOT":0},{"OBJECT_NAME":"STARLINK-5227","OBJECT_ID":"2022-141AA","EPOCH":"2025-09-07T21:15:57.490848","MEAN_MOTION":15.08838554,"ECCENTRICITY":0.00012807,"INCLINATION":53.2167,"RA_OF_ASC_NODE":104.5328,"ARG_OF_PERICENTER":91.9597,"MEAN_ANOMALY":268.1542,"EPHEMERIS_TYPE":0,"CLASSIFICATION_TYPE":"U","NORAD_CAT_ID":54181,"ELEMENT_SET_NO":999,"REV_AT_EPOCH":15826,"BSTAR":0.00010125525,"MEAN_MOTION_DOT":1.324e-5,"MEAN_MOTION_DDOT":0}]
