54165,STARLINK-5279,2022,95.44,260.0,+,53.22,Active,1,LEO,USA,USA,Commercial,Communications,Falcon,1 54165U 22141J   25251.03974925 -.00000883  00000+0 -37365-4 0  9993,2 54165  53.2176 114.0446 0001447  88.9452 271.1706 15.08836513158142,15.08836513,0.0001447,LEO
54166,STARLINK-5280,2022,95.44,260.0,+,53.22,Active,1,LEO,USA,USA,Commercial,Communications,Falcon,1 54166U 22141K   25250.91925301  .00000198  00000+0  30523-4 0  9990,2 54166  53.2174 104.7417 0001243  88.9017 271.2118 15.08833518158269,15.08833518,0.0001243,LEO
54167,STARLINK-5243,2022,95.44,260.0,+,53.22,Active,1,LEO,USA,USA,Commercial,Communications,Falcon,1 54167U 22141L   25250.88884547 -.00000273  00000+0  95031-6 0  9995,2 54167  53.2152 114.5274 0001464  80.3363 279.7795 15.08839174158124,15.08839174,0.0001464,LEO
54168,STARLINK-5245,2022,95.44,260.0,+,53.22,Active,1,LEO,USA,USA,Commercial,Communications,Falcon,1 54168U 22141M   25250.98180484  .00000326  00000+0  38574-4 0  9991,2 54168  53.2175 104.4215 0001329  87.5011 272.6134 15.08837542158274,15.08837542,0.0001329,LEO
54169,STARLINK-5282,2022,95.44,260.0,+,53.22,Active,1,LEO,USA,USA,Commercial,Communications,Falcon,1 54169U 22141N   25250.99645773 -.00000864  00000+0 -36185-4 0  9995,2 54169  53.2163 103.8100 0001200  88.0724 272.0405 15.08839127158280,15.08839127,0.00012,LEO
54170,STARLINK-5155,2022,95.44,260.0,+,53.22,Active,1,LEO,USA,USA,Commercial,Communications,Falcon,1 54170U 22141P   25250.91187931 -.00000202  00000+0  53722-5 0  9998,2 54170  53.2173 104.6974 0001435  93.8996 266.2161 15.08836290158266,15.0883629,0.0001435,LEO
54172,STARLINK-5117,2022,95.44,260.0,+,53.22,Active,1,LEO,USA,USA,Commercial,Communications,Falcon,1 54172U 22141R   25251.03696661  .00003092  00000+0  21217-3 0  9990,2 54172  53.2164 104.0535 0001371  98.5293 261.5855 15.08863686158285,15.08863686,0.0001371,LEO
54173,STARLINK-5242,2022,95.44,260.0,+,53.22,Active,1,LEO,USA,USA,Commercial,Communications,Falcon,1 54173U 22141S   25251.00014071 -.00000331  00000+0 -26847-5 0  9998,2 54173  53.2171 103.8254 0001235 102.2747 257.8383 15.08851134158284,15.08851134,0.0001235,LEO
54174,STARLINK-5248,2022,95.44,260.0,+,53.22,Active,1,LEO,USA,USA,Commercial,Communications,Falcon,1 54174U 22141T   25251.13953942 -.00000981  00000+0 -43575-4 0  9999,2 54174  53.2184  48.3625 0001252  93.8442 266.2694 15.08837222159079,15.08837222,0.0001252,LEO
54175,STARLINK-5256,2022,95.44,260.0,+,53.22,Active,1,LEO,USA,USA,Commercial,Communications,Falcon,1 54175U 22141U   25250.97443696 -.00000566  00000+0 -17454-4 0  9997,2 54175  53.2160 104.3745 0001324  89.7854 270.3290 15.08836159158278,15.08836159,0.0001324,LEO
54176,STARLINK-5154,2022,95.44,260.0,+,53.22,Active,1,LEO,USA,USA,Commercial,Communications,Falcon,1 54176U 22141V   25250.89344707  .00005372  00000+0  35527-3 0  9990,2 54176  53.2155 104.5809 0001203  94.2338 265.8792 15.08849522158263,15.08849522,0.0001203,LEO
54177,STARLINK-5186,2022,95.44,260.0,+,53.22,Active,1,LEO,USA,USA,Commercial,Communications,Falcon,1 54177U 22141W   25251.03330514  .00002036  00000+0  14601-3 0  9993,2 54177  53.2169 104.0315 0001271  86.8641 273.2497 15.08829038158282,15.08829038,0.0001271,LEO
54178,STARLINK-5164,2022,95.44,260.0,+,53.22,Active,1,LEO,USA,USA,Commercial,Communications,Falcon,1 54178U 22141X   25250.87871286 -.00000347  00000+0 -37337-5 0  9999,2 54178  53.2172 104.4648 0001364  89.1676 270.9473 15.08837398158261,15.08837398,0.0001364,LEO
54179,STARLINK-5122,2022,95.44,260.0,+,53.22,Active,1,LEO,USA,USA,Commercial,Communications,Falcon,1 54179U 22141Y   25250.89714408 -.00001552  00000+0 -79453-4 0  9997,2 54179  53.2170 104.6027 0001285  84.1250 275.9889 15.08832175158262,15.08832175,0.0001285,LEO
54180,STARLINK-5228,2022,95.44,260.0,+,53.22,Active,1,LEO,USA,USA,Commercial,Communications,Falcon,1 54180U 22141Z   25250.87502789 -.00000521  00000+0 -14652-4 0  9999,2 54180  53.2167 104.4626 0001194  93.2001 266.9128 15.08841204158266,15.08841204,0.0001194,LEO
54181,STARLINK-5227,2022,95.44,260.0,+,53.22,Active,1,LEO,USA,USA,Commercial,Communications,Falcon,1 54181U 22141AA  25250.88608207  .00001324  00000+0  10126-3 0  9994,2 54181  53.2167 104.5328 0001280  91.9597 268.1542 15.08838554158266,15.08838554,0.000128,LEO
